SILVERSAT               
1 66909U 98067XV  26040.71908121  .00125958  00000+0  13285-2 0  9991
2 66909  51.6267 207.1313 0002403 252.0284 108.0449 15.63320191 10804
ISS OBJECT XW           
1 66910U 98067XW  26040.67144975  .00098201  00000+0  11031-2 0  9994
2 66910  51.6257 207.5584 0001190 285.1610  74.9252 15.61822223 10793
ISS OBJECT XX           
1 66911U 98067XX  26040.75232691  .00144596  00000+0  14448-2 0  9991
2 66911  51.6234 206.6102 0002801 282.1139  77.9542 15.64618808 10800
ISS OBJECT XY           
1 66912U 98067XY  26040.67182220  .00071681  00000+0  90522-3 0  9997
2 66912  51.6282 208.3184 0000662 174.8673 185.2327 15.58897163 10772
ISS OBJECT XZ           
1 67683U 98067XZ  26040.95151172  .00039650  00000+0  70823-3 0  9998
2 67683  51.6304 209.4325 0010941  97.0225 263.2008 15.49577768   488
GXIBA-1                 
1 67684U 98067YA  26040.95012208  .00068596  00000+0  11910-2 0  9997
2 67684  51.6304 209.4241 0012841  92.4624 267.7835 15.50115097   481
CORAL                   
1 67685U 98067YB  26040.95120063  .00044489  00000+0  78950-3 0  9990
2 67685  51.6304 209.4309 0012869  92.5754 267.6708 15.49684717   488
ISS OBJECT YC           
1 67686U 98067YC  26040.88651277  .00047700  00000+0  84454-3 0  9994
2 67686  51.6307 209.7494 0007758  69.9375 290.2448 15.49776266   471
LEOPARD                 
1 67687U 98067YD  26040.95132799  .00042213  00000+0  75238-3 0  9990
2 67687  51.6308 209.4316 0007895  71.1896 288.9948 15.49641437   401
ISS OBJECT YE           
1 67688U 98067YE  26040.88655889  .00046819  00000+0  83022-3 0  9999
2 67688  51.6309 209.7496 0007774  69.6595 290.5228 15.49740553   396
